STARLINK-5367           
1 55501C 23015BE  26095.57618056  .00009444  00000+0  35099-3 0   953
2 55501  43.0006 188.0844 0001334 271.1911 127.7366 15.26726384    14
STARLINK-5749           
1 55569C 23020A   26095.61229167 -.00125140  00000+0 -47677-2 0   957
2 55569  43.0017 216.1209 0002143 273.5881 153.0522 15.25972161    10
STARLINK-5737           
1 55570C 23020B   26095.59006944 -.00008318  00000+0 -30138-3 0   954
2 55570  43.0013 213.3626 0001392 272.6391 169.9528 15.27571079    18
STARLINK-5739           
1 55571C 23020C   26095.60812500 -.00006297  00000+0 -24004-3 0   959
2 55571  43.0008 216.2567 0001667 271.5999  84.2445 15.25896711    14
STARLINK-5732           
1 55572C 23020D   26095.51437500 -.00018257  00000+0 -69583-3 0   953
2 55572  43.0012 216.7461 0001785 269.5051 307.2684 15.25908052    10
STARLINK-5738           
1 55573C 23020E   26095.50604167 -.00018844  00000+0 -71827-3 0   954
2 55573  43.0014 216.6628 0001693 269.8952 316.0717 15.25906274    17
STARLINK-5747           
1 55574C 23020F   26095.48520833 -.00023756  00000+0 -90534-3 0   953
2 55574  43.0003 217.0092 0001557 278.0093  94.7442 15.25915172    15
STARLINK-5745           
1 55575C 23020G   26095.51576389 -.00019146  00000+0 -72974-3 0   951
2 55575  43.0016 216.5863 0001907 271.7804  15.1194 15.25907007    18
STARLINK-5751           
1 55576C 23020H   26095.53659722 -.00004327  00000+0 -16081-3 0   959
2 55576  43.0028 187.7928 0001804 270.5283 188.3561 15.26734243    19
STARLINK-5752           
1 55577C 23020J   26095.55951389 -.00102310  00000+0 -38017-2 0   959
2 55577  43.0015 213.5770 0001470 266.7470 321.5006 15.26788810    17
STARLINK-5754           
1 55579C 23020L   26095.52756944 -.00016914  00000+0 -61285-3 0   956
2 55579  43.0010 213.5903 0001320 269.3353 238.6691 15.27574895    10
STARLINK-5757           
1 55580C 23020M   26095.58590278  .00017017  00000+0  61638-3 0   955
2 55580  43.0006 187.6511 0001537 270.0322  40.6515 15.27567664    10
STARLINK-5753           
1 55581C 23020N   26095.56437500 -.00075183  00000+0 -44000-2 0   955
2 55581  43.0002 217.7244 0001080 269.8093  47.3131 15.11115756    11
STARLINK-5741           
1 55582C 23020P   26095.56576389  .00000199  00000+0  74031-5 0   958
2 55582  42.9999 202.3743 0001441 262.2891 346.7792 15.26731840    16
STARLINK-5742           
1 55583C 23020Q   26095.50673611 -.00053153  00000+0 -19253-2 0   951
2 55583  43.0003 213.4131 0001474 261.9122 258.7456 15.27602197    10
STARLINK-5736           
1 55584C 23020R   26095.55743056 -.00014987  00000+0 -54303-3 0   956
2 55584  43.0008 213.8983 0001415 272.3883 201.9304 15.27572815    15
STARLINK-5769           
1 55585C 23020S   26095.51854167 -.00011408  00000+0 -42403-3 0   952
2 55585  43.0008 202.9578 0001422 265.6100 313.1706 15.26734513    16
STARLINK-5767           
1 55586C 23020T   26095.53659722 -.00013785  00000+0 -51238-3 0   951
2 55586  43.0009 213.5550 0001279 267.1810 286.3161 15.26733940    10
STARLINK-5727           
1 55587C 23020U   26095.54770833 -.00011293  00000+0 -41964-3 0   957
2 55587  42.9989 213.4465 0001419 269.0792 334.7464 15.26743356    12
STARLINK-5728           
1 55588C 23020V   26095.52826389  .00062868  00000+0  23986-2 0   959
2 55588  43.0009 213.5528 0001375 262.4200 266.0749 15.25834716    14
STARLINK-5697           
1 55589C 23020W   26095.50465278 -.00021119  00000+0 -76506-3 0   957
2 55589  43.0010 213.7717 0001123 273.7593  86.8572 15.27584340    19
STARLINK-5762           
1 55590C 23020X   26095.60812500  .00001978  00000+0  73479-4 0   950
2 55590  43.0005 212.9996 0001458 261.6614  29.6651 15.26740404    13
STARLINK-5760           
1 55591C 23020Y   26095.54979167 -.00011407  00000+0 -42398-3 0   952
2 55591  43.0006 213.4710 0001229 264.9925   4.5594 15.26735963    14
STARLINK-5759           
1 55592C 23020Z   26095.57201389 -.00008324  00000+0 -30161-3 0   959
2 55592  43.0006 213.0744 0001788 273.0363 232.8552 15.27567998    17
STARLINK-5703           
1 55593C 23020AA  26095.59423611 -.00003774  00000+0 -14026-3 0   952
2 55593  43.0008 212.8609 0001432 274.5226  31.9254 15.26732540    10
STARLINK-5750           
1 55594C 23020AB  26095.52270833 -.00015012  00000+0 -55786-3 0   958
2 55594  43.0004 213.3459 0001747 263.9538 333.5450 15.26741690    18
STARLINK-5729           
1 55596C 23020AD  26095.50951389 -.00029377  00000+0 -10916-2 0   954
2 55596  43.0011 213.5726 0001717 266.4207 192.6066 15.26752156    11
STARLINK-5743           
1 55597C 23020AE  26095.56159722 -.00008240  00000+0 -30624-3 0   957
2 55597  43.0013 201.9018 0001535 267.0501 172.2341 15.26735666    18
STARLINK-5756           
1 55598C 23020AF  26095.50465278 -.00084307  00000+0 -30536-2 0   957
2 55598  43.0004 202.9226 0001409 275.1759 261.4361 15.27619958    15
STARLINK-5761           
1 55599C 23020AG  26095.51020833 -.00012441  00000+0 -46239-3 0   951
2 55599  43.0000 202.8430 0001361 272.3048 316.1832 15.26736892    12
STARLINK-5755           
1 55600C 23020AH  26095.57548611 -.00000695  00000+0 -25178-4 0   957
2 55600  42.9996 202.2756 0001317 282.1059  37.6545 15.27569799    11
STARLINK-5744           
1 55601C 23020AJ  26095.51229167 -.00020514  00000+0 -76237-3 0   957
2 55601  43.0018 213.9171 0001987 274.0916  49.3112 15.26742725    15
STARLINK-5764           
1 55602C 23020AK  26095.56993056  .00001329  00000+0  49374-4 0   952
2 55602  42.9999 202.4038 0001355 270.8515 329.6399 15.26735308    15
STARLINK-5735           
1 55603C 23020AL  26095.52965278 -.00032198  00000+0 -11959-2 0   950
2 55603  43.0006 202.3725 0001776 265.4288 231.9114 15.26767006    13
STARLINK-5748           
1 55604C 23020AM  26095.52201389 -.00010016  00000+0 -37222-3 0   954
2 55604  43.0027 187.8471 0001609 274.7574 119.0167 15.26739397    14
STARLINK-5725           
1 55605C 23020AN  26095.48590278 -.00016748  00000+0 -62248-3 0   952
2 55605  42.9997 202.7791 0001333 269.4671 278.0980 15.26737396    10
STARLINK-5700           
1 55607C 23020AQ  26095.60604167  .00010351  00000+0  38459-3 0   950
2 55607  42.9998 202.0343 0001595 272.7836 244.7004 15.26734880    11
STARLINK-5726           
1 55608C 23020AR  26095.51298611  .00702520  00000+0  25955-1 0   955
2 55608  43.0005 202.9053 0001668 261.9054 314.7351 15.26578198    14
STARLINK-5719           
1 55609C 23020AS  26095.49145833 -.00015471  00000+0 -57446-3 0   956
2 55609  42.9995 202.7317 0001413 273.1102 312.0005 15.26769030    13
STARLINK-5722           
1 55610C 23020AT  26095.52062500 -.00010949  00000+0 -39675-3 0   950
2 55610  43.0007 202.9637 0001394 268.9054 306.0934 15.27569194    18
STARLINK-5730           
1 55611C 23020AU  26095.56090278 -.00005321  00000+0 -19775-3 0   955
2 55611  42.9985 202.6106 0001422 279.3706 212.4627 15.26736405    11
STARLINK-5734           
1 55612C 23020AV  26095.59562500  .00002993  00000+0  11114-3 0   950
2 55612  42.9995 202.3193 0001343 281.7382  81.7447 15.26759534    10
STARLINK-5714           
1 55614C 23020AX  26095.54354167  .00004748  00000+0  17645-3 0   950
2 55614  43.0006 187.5226 0001675 269.4856 308.4866 15.26732063    17
STARLINK-5712           
1 55615C 23020AY  26095.57062500 -.00001096  00000+0 -40726-4 0   953
2 55615  43.0007 201.7894 0001458 259.6671 248.7156 15.26745677    17
STARLINK-5710           
1 55616C 23020AZ  26095.49562500 -.00021624  00000+0 -80360-3 0   956
2 55616  43.0016 202.4315 0001809 272.3844  91.8491 15.26744051    12
STARLINK-5721           
1 55617C 23020BA  26095.55743056 -.00009837  00000+0 -36561-3 0   957
2 55617  43.0010 201.9130 0001426 272.2838 141.5663 15.26734829    19
STARLINK-5717           
1 55618C 23020BB  26095.53243056 -.00010677  00000+0 -39673-3 0   952
2 55618  43.0010 202.3035 0002058 277.3882 255.4418 15.26742062    17
STARLINK-5720           
1 55619C 23020BC  26095.51020833 -.00021190  00000+0 -78734-3 0   950
2 55619  42.9999 202.6587 0001237 275.1328  35.8915 15.26751201    13
STARLINK-5718           
1 55620C 23020BD  26095.57340278 -.00006359  00000+0 -23630-3 0   951
2 55620  43.0010 202.0816 0002079 278.2746 114.8728 15.26737049    17
STARLINK-5709           
1 55621C 23020BE  26095.52826389 -.00010208  00000+0 -37938-3 0   953
2 55621  43.0016 202.1982 0001855 266.6199 297.3295 15.26736893    15
STARLINK-5702           
1 55622C 23020BF  26095.58104167 -.00003581  00000+0 -13308-3 0   954
2 55622  43.0006 202.0936 0001560 265.5226 146.3172 15.26733628    15
STARLINK-5698           
1 55623C 23020BG  26095.54701389 -.00006859  00000+0 -25488-3 0   953
2 55623  42.9993 202.4238 0001489 269.0575 256.5602 15.26736999    10
STARLINK-5484           
1 55628C 23021A   26095.60118056  .00020485  00000+0  17166-2 0   951
2 55628  69.9999 136.6903 0004070 271.4268 216.0552 14.98319399    16
STARLINK-5497           
1 55629C 23021B   26095.48729167  .00032268  00000+0  27042-2 0   955
2 55629  70.0000 137.0038 0003319 284.4942 286.2452 14.98313480    18
STARLINK-5303           
1 55630C 23021C   26095.50881944  .00034147  00000+0  28618-2 0   950
2 55630  69.9999 136.8976 0003766 273.2557  98.6791 14.98309457    16
STARLINK-5558           
1 55631C 23021D   26095.50812500  .00040072  00000+0  33583-2 0   954
2 55631  69.9998 136.7465 0003516 274.8487 228.4071 14.98308619    13
STARLINK-5546           
1 55632C 23021E   26095.55951389  .00031172  00000+0  26120-2 0   959
2 55632  69.9999 136.7178 0003149 275.0555  55.2867 14.98318769    13
STARLINK-5498           
1 55633C 23021F   26095.51784722  .00039958  00000+0  33489-2 0   957
2 55633  70.0003 136.7984 0003586 273.9299 214.2325 14.98306856    15
STARLINK-5500           
1 55634C 23021G   26095.49354167  .00035235  00000+0  29536-2 0   953
2 55634  70.0000 136.8861 0003044 273.1917  60.4603 14.98303006    10
